B093   ?    HHZ  ? P      ? 20250815 1643   29.0388 GAU -1.00e+00 -1.00e+00 -1.00e+00 -1.00e+00
FRD    ?    HHZ  ? P      ? 20250815 1643   32.0857 GAU -1.00e+00 -1.00e+00 -1.00e+00 -1.00e+00
FRD    ?    HHN  ? S      ? 20250815 1643   36.0767 GAU -1.00e+00 -1.00e+00 -1.00e+00 -1.00e+00
RDM    ?    HHN  ? S      ? 20250815 1643   33.0097 GAU -1.00e+00 -1.00e+00 -1.00e+00 -1.00e+00
JORD   ?    HHE  ? S      ? 20250815 1643   35.0114 GAU -1.00e+00 -1.00e+00 -1.00e+00 -1.00e+00
JORD   ?    HHZ  ? P      ? 20250815 1643   31.0229 GAU -1.00e+00 -1.00e+00 -1.00e+00 -1.00e+00
RDM    ?    HHZ  ? P      ? 20250815 1643   30.0757 GAU -1.00e+00 -1.00e+00 -1.00e+00 -1.00e+00
MUR    ?    HHN  ? S      ? 20250815 1643   39.0479 GAU -1.00e+00 -1.00e+00 -1.00e+00 -1.00e+00
DGR    ?    HHN  ? S      ? 20250815 1643   34.0989 GAU -1.00e+00 -1.00e+00 -1.00e+00 -1.00e+00
DGR    ?    HHZ  ? P      ? 20250815 1643   31.0809 GAU -1.00e+00 -1.00e+00 -1.00e+00 -1.00e+00
MUR    ?    HHZ  ? P      ? 20250815 1643   34.0359 GAU -1.00e+00 -1.00e+00 -1.00e+00 -1.00e+00
B087   ?    HH2  ? S      ? 20250815 1643   35.0268 GAU -1.00e+00 -1.00e+00 -1.00e+00 -1.00e+00
XPFO   ?    BHZ  ? P      ? 20250815 1643   34.0119 GAU -1.00e+00 -1.00e+00 -1.00e+00 -1.00e+00
B087   ?    HHZ  ? P      ? 20250815 1643   31.0388 GAU -1.00e+00 -1.00e+00 -1.00e+00 -1.00e+00
PFO    ?    BHZ  ? P      ? 20250815 1643   34.0319 GAU -1.00e+00 -1.00e+00 -1.00e+00 -1.00e+00
B082   ?    HH2  ? S      ? 20250815 1643   33.0563 GAU -1.00e+00 -1.00e+00 -1.00e+00 -1.00e+00
LVA2   ?    BHE  ? S      ? 20250815 1643   41.0696 GAU -1.00e+00 -1.00e+00 -1.00e+00 -1.00e+00
PFO    ?    BH1  ? S      ? 20250815 1643   38.0619 GAU -1.00e+00 -1.00e+00 -1.00e+00 -1.00e+00
LVA2   ?    BHE  ? P      ? 20250815 1643   35.0382 GAU -1.00e+00 -1.00e+00 -1.00e+00 -1.00e+00
XPFO   ?    BH1  ? S      ? 20250815 1643   38.0619 GAU -1.00e+00 -1.00e+00 -1.00e+00 -1.00e+00
B082   ?    HHZ  ? P      ? 20250815 1643   30.0288 GAU -1.00e+00 -1.00e+00 -1.00e+00 -1.00e+00
PLM    ?    HHZ  ? P      ? 20250815 1643   34.0229 GAU -1.00e+00 -1.00e+00 -1.00e+00 -1.00e+00
SND    ?    HHE  ? S      ? 20250815 1643   36.0327 GAU -1.00e+00 -1.00e+00 -1.00e+00 -1.00e+00
SND    ?    HHZ  ? P      ? 20250815 1643   32.0347 GAU -1.00e+00 -1.00e+00 -1.00e+00 -1.00e+00
PLM    ?    HHN  ? S      ? 20250815 1643   39.0519 GAU -1.00e+00 -1.00e+00 -1.00e+00 -1.00e+00
